MALLIGYONG-1            
1 58400U 23179A   24171.22118749  .00005186  00000+0  23630-3 0  9994
2 58400  97.4045  58.0370 0002633 140.4790 219.6638 15.21095173 32037
